ONEWEB-0634             
1 56075U 23043AF  25288.47247380 -.00000138  00000+0 -39939-3 0  9994
2 56075  87.8980 308.0702 0002194  94.1836 265.9545 13.15547988124220
ONEWEB-0635             
1 56076U 23043AG  25288.54377415 -.00000172  00000+0 -49016-3 0  9991
2 56076  87.8969 308.0134 0001563  89.8939 270.2371 13.15549986124261
ONEWEB-0636             
1 56077U 23043AH  25288.61191462 -.00000056  00000+0 -18274-3 0  9999
2 56077  87.8970 308.0182 0001641  90.1708 269.9610 13.15547241124255
ONEWEB-0637             
1 56078U 23043AJ  25288.60556113 -.00000022  00000+0 -92087-4 0  9995
2 56078  87.8974 308.0335 0001889  83.5668 276.5678 13.15548397124278
ONEWEB-0647             
1 56079U 23043AK  25288.60082513  .00000033  00000+0  54045-4 0  9996
2 56079  87.8975 308.0479 0001684  96.1392 263.9930 13.15546831124267
ONEWEB-0651             
1 56080U 23043AL  25288.59606554  .00000105  00000+0  24433-3 0  9990
2 56080  87.8977 308.0411 0001677  85.6157 274.5165 13.15549853125469
ONEWEB-0718             
1 56081U 23043AM  25288.51527145  .00000084  00000+0  18793-3 0  9999
2 56081  87.8976 308.0380 0002426  91.9785 268.1623 13.15546962124267
ONEWEB-0561             
1 56710U 23068A   25288.50333718 -.00000121  00000+0 -33014-3 0  9992
2 56710  87.9212 323.2515 0001376  97.5481 262.5809 13.20772089117204
